LOGOS_L_00007003-17
1 89666U 24588EA  26070.40854167  .00000000  00000+0  00000-0 0  9991
2 89666  67.0000  90.0000 0000000   0.0000 266.0870 14.06899812    17
LOGOS_L_00007003-18
1 89667U 25782AN  26070.40854167  .00000000  00000+0  00000-0 0  9999
2 89667  67.0000  90.0000 0000000   0.0000 281.7391 14.06899812    10
LOGOS_L_00007003-19
1 89668U 24528IG  26070.40854167  .00000000  00000+0  00000-0 0  9997
2 89668  67.0000  90.0000 0000000   0.0000 297.3913 14.06899812    14
LOGOS_L_00007003-20
1 89669U 25139WJ  26070.40854167  .00000000  00000+0  00000-0 0  9997
2 89669  67.0000  90.0000 0000000   0.0000 313.0435 14.06899812    10
LOGOS_L_00007003-21
1 89670U 23108NG  26070.40854167  .00000000  00000+0  00000-0 0  9993
2 89670  67.0000  90.0000 0000000   0.0000 328.6957 14.06899812    13
LOGOS_L_00007003-22
1 89671U 26647LM  26070.40854167  .00000000  00000+0  00000-0 0  9995
2 89671  67.0000  90.0000 0000000   0.0000 344.3478 14.06899812    17
LOGOS_L_00007003-23
1 89672U 23232IM  26070.40854167  .00000000  00000+0  00000-0 0  9993
2 89672  67.0000  90.0000 0000000   0.0000   0.0000 14.06899812    15
LOGOS_L_00007004-01
1 89673U 22547LW  26070.40854167  .00000000  00000+0  00000-0 0  9992
2 89673  67.0000 135.0000 0000000   0.0000  23.4783 14.06899812    13
LOGOS_L_00007004-02
1 89674U 23296CV  26070.40854167  .00000000  00000+0  00000-0 0  9995
2 89674  67.0000 135.0000 0000000   0.0000  39.1304 14.06899812    17
LOGOS_L_00007004-03
1 89675U 26434ZI  26070.40854167  .00000000  00000+0  00000-0 0  9993
2 89675  67.0000 135.0000 0000000   0.0000  54.7826 14.06899812    10
LOGOS_L_00007004-04
1 89676U 25841IZ  26070.40854167  .00000000  00000+0  00000-0 0  9995
2 89676  67.0000 135.0000 0000000   0.0000  70.4348 14.06899812    15
LOGOS_L_00007004-05
1 89677U 23557WM  26070.40854167  .00000000  00000+0  00000-0 0  9998
2 89677  67.0000 135.0000 0000000   0.0000  86.0870 14.06899812    19
LOGOS_L_00007004-06
1 89678U 26878HP  26070.40854167  .00000000  00000+0  00000-0 0  9998
2 89678  67.0000 135.0000 0000000   0.0000 101.7391 14.06899812    13
LOGOS_L_00007004-07
1 89679U 26717NO  26070.40854167  .00000000  00000+0  00000-0 0  9991
2 89679  67.0000 135.0000 0000000   0.0000 117.3913 14.06899812    17
LOGOS_L_00007004-08
1 89680U 23282GV  26070.40854167  .00000000  00000+0  00000-0 0  9997
2 89680  67.0000 135.0000 0000000   0.0000 133.0435 14.06899812    13
LOGOS_L_00007004-09
1 89681U 22638ZT  26070.40854167  .00000000  00000+0  00000-0 0  9992
2 89681  67.0000 135.0000 0000000   0.0000 148.6957 14.06899812    15
LOGOS_L_00007004-10
1 89682U 25011SY  26070.40854167  .00000000  00000+0  00000-0 0  9991
2 89682  67.0000 135.0000 0000000   0.0000 164.3478 14.06899812    19
LOGOS_L_00007004-11
1 89683U 25180FV  26070.40854167  .00000000  00000+0  00000-0 0  9999
2 89683  67.0000 135.0000 0000000   0.0000 180.0000 14.06899812    16
LOGOS_L_00007004-12
1 89684U 25595TV  26070.40854167  .00000000  00000+0  00000-0 0  9990
2 89684  67.0000 135.0000 0000000   0.0000 195.6522 14.06899812    18
LOGOS_L_00007004-13
1 89685U 22177PE  26070.40854167  .00000000  00000+0  00000-0 0  9994
2 89685  67.0000 135.0000 0000000   0.0000 211.3043 14.06899812    13
LOGOS_L_00007004-14
1 89686U 25656JL  26070.40854167  .00000000  00000+0  00000-0 0  9990
2 89686  67.0000 135.0000 0000000   0.0000 226.9565 14.06899812    15
LOGOS_L_00007004-15
1 89687U 24102AI  26070.40854167  .00000000  00000+0  00000-0 0  9996
2 89687  67.0000 135.0000 0000000   0.0000 242.6087 14.06899812    10
LOGOS_L_00007004-16
1 89688U 25818CC  26070.40854167  .00000000  00000+0  00000-0 0  9992
2 89688  67.0000 135.0000 0000000   0.0000 258.2609 14.06899812    14
LOGOS_L_00007004-17
1 89689U 24624ZD  26070.40854167  .00000000  00000+0  00000-0 0  9997
2 89689  67.0000 135.0000 0000000   0.0000 273.9130 14.06899812    18
LOGOS_L_00007004-18
1 89690U 22958WT  26070.40854167  .00000000  00000+0  00000-0 0  9997
2 89690  67.0000 135.0000 0000000   0.0000 289.5652 14.06899812    12
LOGOS_L_00007004-19
1 89691U 24823JS  26070.40854167  .00000000  00000+0  00000-0 0  9991
2 89691  67.0000 135.0000 0000000   0.0000 305.2174 14.06899812    18
LOGOS_L_00007004-20
1 89692U 23331FH  26070.40854167  .00000000  00000+0  00000-0 0  9995
2 89692  67.0000 135.0000 0000000   0.0000 320.8696 14.06899812    11
LOGOS_L_00007004-21
1 89693U 23267FR  26070.40854167  .00000000  00000+0  00000-0 0  9994
2 89693  67.0000 135.0000 0000000   0.0000 336.5217 14.06899812    15
LOGOS_L_00007004-22
1 89694U 22054CY  26070.40854167  .00000000  00000+0  00000-0 0  9998
2 89694  67.0000 135.0000 0000000   0.0000 352.1739 14.06899812    19
LOGOS_L_00007004-23
1 89695U 22320BO  26070.40854167  .00000000  00000+0  00000-0 0  9995
2 89695  67.0000 135.0000 0000000   0.0000   7.8261 14.06899812    14
LOGOS_L_00007005-01
1 89696U 26771MK  26070.40854167  .00000000  00000+0  00000-0 0  9990
2 89696  67.0000 180.0000 0000000   0.0000  31.3043 14.06899812    15
LOGOS_L_00007005-02
1 89697U 25441VE  26070.40854167  .00000000  00000+0  00000-0 0  9994
2 89697  67.0000 180.0000 0000000   0.0000  46.9565 14.06899812    17
LOGOS_L_00007005-03
1 89698U 24560GU  26070.40854167  .00000000  00000+0  00000-0 0  9996
2 89698  67.0000 180.0000 0000000   0.0000  62.6087 14.06899812    12
LOGOS_L_00007005-04
1 89699U 22588NK  26070.40854167  .00000000  00000+0  00000-0 0  9995
2 89699  67.0000 180.0000 0000000   0.0000  78.2609 14.06899812    16
LOGOS_L_00007005-05
1 89700U 23782XH  26070.40854167  .00000000  00000+0  00000-0 0  9995
2 89700  67.0000 180.0000 0000000   0.0000  93.9130 14.06899812    12
LOGOS_L_00007005-06
1 89701U 26998LF  26070.40854167  .00000000  00000+0  00000-0 0  9998
2 89701  67.0000 180.0000 0000000   0.0000 109.5652 14.06899812    16
LOGOS_L_00007005-07
1 89702U 23028CQ  26070.40854167  .00000000  00000+0  00000-0 0  9990
2 89702  67.0000 180.0000 0000000   0.0000 125.2174 14.06899812    11
LOGOS_L_00007005-08
1 89703U 25694BD  26070.40854167  .00000000  00000+0  00000-0 0  9992
2 89703  67.0000 180.0000 0000000   0.0000 140.8696 14.06899812    14
LOGOS_L_00007005-09
1 89704U 22432IK  26070.40854167  .00000000  00000+0  00000-0 0  9990
2 89704  67.0000 180.0000 0000000   0.0000 156.5217 14.06899812    18
LOGOS_L_00007005-10
1 89705U 26214GQ  26070.40854167  .00000000  00000+0  00000-0 0  9993
2 89705  67.0000 180.0000 0000000   0.0000 172.1739 14.06899812    12
LOGOS_L_00007005-11
1 89706U 24959RK  26070.40854167  .00000000  00000+0  00000-0 0  9998
2 89706  67.0000 180.0000 0000000   0.0000 187.8261 14.06899812    16
LOGOS_L_00007005-12
1 89707U 23110AA  26070.40854167  .00000000  00000+0  00000-0 0  9997
2 89707  67.0000 180.0000 0000000   0.0000 203.4783 14.06899812    11
LOGOS_L_00007005-13
1 89708U 23544NJ  26070.40854167  .00000000  00000+0  00000-0 0  9999
2 89708  67.0000 180.0000 0000000   0.0000 219.1304 14.06899812    15
LOGOS_L_00007005-14
1 89709U 23142SQ  26070.40854167  .00000000  00000+0  00000-0 0  9994
2 89709  67.0000 180.0000 0000000   0.0000 234.7826 14.06899812    18
LOGOS_L_00007005-15
1 89710U 24441TF  26070.40854167  .00000000  00000+0  00000-0 0  9999
2 89710  67.0000 180.0000 0000000   0.0000 250.4348 14.06899812    14
LOGOS_L_00007005-16
1 89711U 26153NU  26070.40854167  .00000000  00000+0  00000-0 0  9992
2 89711  67.0000 180.0000 0000000   0.0000 266.0870 14.06899812    18
LOGOS_L_00007005-17
1 89712U 25114YO  26070.40854167  .00000000  00000+0  00000-0 0  9999
2 89712  67.0000 180.0000 0000000   0.0000 281.7391 14.06899812    11
LOGOS_L_00007005-18
1 89713U 26417BU  26070.40854167  .00000000  00000+0  00000-0 0  9997
2 89713  67.0000 180.0000 0000000   0.0000 297.3913 14.06899812    15
LOGOS_L_00007005-19
1 89714U 22750FL  26070.40854167  .00000000  00000+0  00000-0 0  9994
2 89714  67.0000 180.0000 0000000   0.0000 313.0435 14.06899812    11
LOGOS_L_00007005-20
1 89715U 22252LI  26070.40854167  .00000000  00000+0  00000-0 0  9992
2 89715  67.0000 180.0000 0000000   0.0000 328.6957 14.06899812    13
LOGOS_L_00007005-21
1 89716U 25693MJ  26070.40854167  .00000000  00000+0  00000-0 0  9995
2 89716  67.0000 180.0000 0000000   0.0000 344.3478 14.06899812    17
LOGOS_L_00007005-22
1 89717U 25968NW  26070.40854167  .00000000  00000+0  00000-0 0  9991
2 89717  67.0000 180.0000 0000000   0.0000   0.0000 14.06899812    15
LOGOS_L_00007005-23
1 89718U 23612IJ  26070.40854167  .00000000  00000+0  00000-0 0  9996
2 89718  67.0000 180.0000 0000000   0.0000  15.6522 14.06899812    17
LOGOS_L_00007006-01
1 89719U 26811QW  26070.40854167  .00000000  00000+0  00000-0 0  9991
2 89719  67.0000 225.0000 0000000   0.0000  39.1304 14.06899812    17
LOGOS_L_00007006-02
1 89720U 24205DX  26070.40854167  .00000000  00000+0  00000-0 0  9998
2 89720  67.0000 225.0000 0000000   0.0000  54.7826 14.06899812    11
LOGOS_L_00007006-03
1 89721U 22765GH  26070.40854167  .00000000  00000+0  00000-0 0  9998
2 89721  67.0000 225.0000 0000000   0.0000  70.4348 14.06899812    16
LOGOS_L_00007006-04
1 89722U 26898JP  26070.40854167  .00000000  00000+0  00000-0 0  9990
2 89722  67.0000 225.0000 0000000   0.0000  86.0870 14.06899812    10
LOGOS_L_00007006-05
1 89723U 26191QC  26070.40854167  .00000000  00000+0  00000-0 0  9997
2 89723  67.0000 225.0000 0000000   0.0000 101.7391 14.06899812    14
LOGOS_L_00007006-06
1 89724U 26423EZ  26070.40854167  .00000000  00000+0  00000-0 0  9996
2 89724  67.0000 225.0000 0000000   0.0000 117.3913 14.06899812    18
LOGOS_L_00007006-07
1 89725U 26782GA  26070.40854167  .00000000  00000+0  00000-0 0  9995
2 89725  67.0000 225.0000 0000000   0.0000 133.0435 14.06899812    13
LOGOS_L_00007006-08
1 89726U 23661VR  26070.40854167  .00000000  00000+0  00000-0 0  9999
2 89726  67.0000 225.0000 0000000   0.0000 148.6957 14.06899812    15
LOGOS_L_00007006-09
1 89727U 22209BK  26070.40854167  .00000000  00000+0  00000-0 0  9997
2 89727  67.0000 225.0000 0000000   0.0000 164.3478 14.06899812    19
